[Satellite]
VERSION=1.1
NAME=SnugLite
NICKNAME=SnugLite
TLE1=1 43784U 18099AC  19311.19814312  .00000318  00000-0  34155-4 0  9991
TLE2=2 43784  97.7286  21.1867 0014485 212.4390 147.5942 14.95208465 50578
STATUS=0
